GLOBALSTAR M023         
1 25621U 99004A   24237.73077045 -.00000051  00000+0  29449-3 0  9996
2 25621  52.0083 236.1413 0010076 192.1952 338.8975 12.62465764178281
GLOBALSTAR M040         
1 25622U 99004B   24237.95143237 -.00000055  00000+0  27390-3 0  9995
2 25622  51.9889 239.1826 0000881 103.8677 268.5927 12.61980688177855
GLOBALSTAR M036         
1 25623U 99004C   24237.88880383  .00000092  00000+0  25537-2 0  9998
2 25623  51.9978 301.2884 0011167 200.1828 331.4266 11.86579292143803
GLOBALSTAR M038         
1 25624U 99004D   24237.84339845 -.00000048  00000+0  38683-3 0  9996
2 25624  51.9949 204.9938 0001678 150.3271 240.2492 12.32506164165830
GLOBALSTAR M022         
1 25649U 99012A   24237.92848476 -.00000086  00000+0  77131-5 0  9991
2 25649  52.0067  16.2591 0001779 311.7267 196.5112 12.02487240140733
GLOBALSTAR M041         
1 25650U 99012B   24237.77883187 -.00000056  00000+0  37220-3 0  9994
2 25650  51.9994 249.0825 0002726  99.5364 260.5780 11.96659637142794
GLOBALSTAR M046         
1 25651U 99012C   24237.54657117 -.00000166  00000+0 -85034-3 0  9991
2 25651  52.0083 338.2629 0002230  36.9289 336.3113 12.09395073147771
GLOBALSTAR M037         
1 25652U 99012D   24237.66131560 -.00000076  00000+0  15461-3 0  9990
2 25652  52.0031   7.0782 0001316 231.4851 142.6527 12.62415387173829
